[{"OBJECT_NAME":"STARLINK-34923","OBJECT_ID":"2025-179N","EPOCH":"2026-03-09T16:30:15.046560","MEAN_MOTION":15.0565355,"ECCENTRICITY":0.0001377,"INCLINATION":97.6029,"RA_OF_ASC_NODE":112.8951,"ARG_OF_PERICENTER":155.5655,"MEAN_ANOMALY":204.5637,"EPHEMERIS_TYPE":0,"CLASSIFICATION_TYPE":"U","NORAD_CAT_ID":65247,"ELEMENT_SET_NO":999,"REV_AT_EPOCH":3186,"BSTAR":0.00024357293,"MEAN_MOTION_DOT":3.456e-5,"MEAN_MOTION_DDOT":0},{"OBJECT_NAME":"RAPIDEYE 2","OBJECT_ID":"2008-040A","EPOCH":"2026-03-09T16:28:01.823808","MEAN_MOTION":15.04945954,"ECCENTRICITY":0.00177122,"INCLINATION":97.4373,"RA_OF_ASC_NODE":102.2221,"ARG_OF_PERICENTER":194.2548,"MEAN_ANOMALY":165.8182,"EPHEMERIS_TYPE":0,"CLASSIFICATION_TYPE":"U","NORAD_CAT_ID":33312,"ELEMENT_SET_NO":999,"REV_AT_EPOCH":95100,"BSTAR":0.0001818221,"MEAN_MOTION_DOT":2.525e-5,"MEAN_MOTION_DDOT":0}]
